OBJECT_NAME,OBJECT_ID,EPOCH,MEAN_MOTION,ECCENTRICITY,INCLINATION,RA_OF_ASC_NODE,ARG_OF_PERICENTER,MEAN_ANOMALY,EPHEMERIS_TYPE,CLASSIFICATION_TYPE,NORAD_CAT_ID,ELEMENT_SET_NO,REV_AT_EPOCH,BSTAR,MEAN_MOTION_DOT,MEAN_MOTION_DDOT
TELSTAR 19V,2018-059A,2024-08-15T07:37:01.662240,1.00270614,.0003302,0.0235,169.9137,328.3142,237.2312,0,U,43562,999,2241,0,-.273E-5,0
GSAT0221 (GALILEO 25),2018-060A,2024-08-17T08:35:35.690208,1.70476027,.0002756,57.3038,359.8233,261.2788,98.6918,0,U,43564,999,3776,0,-.79E-6,0
GSAT0222 (GALILEO 26),2018-060B,2024-08-18T17:59:45.255840,1.70475746,.0003319,57.3079,359.7877,218.5897,141.3872,0,U,43565,999,3783,0,-.81E-6,0
GSAT0219 (GALILEO 23),2018-060C,2024-08-19T13:23:48.071328,1.70476004,.0001894,57.3065,359.7678,265.7255,94.2534,0,U,43566,999,3782,0,-.83E-6,0
GSAT0220 (GALILEO 24),2018-060D,2024-08-18T14:32:11.361120,1.70475670,.0002185,57.3068,359.7942,259.8094,100.1666,0,U,43567,999,3779,0,-.81E-6,0
IRIDIUM 160,2018-061A,2024-08-19T08:27:25.046208,14.34212912,.0002447,86.4017,335.4590,98.0470,262.1003,0,U,43569,999,31779,.5071E-5,.34E-6,0
IRIDIUM 166,2018-061B,2024-08-19T14:05:21.965856,14.34212876,.0002108,86.4016,335.3203,87.4636,272.6801,0,U,43570,999,31785,.33323E-3,.953E-5,0
IRIDIUM 158,2018-061C,2024-08-19T13:19:41.432160,14.34214658,.0002012,86.4015,335.3430,90.8608,269.2819,0,U,43571,999,31782,.24291E-3,.7E-5,0
IRIDIUM 165,2018-061D,2024-08-19T08:54:51.183936,14.34214411,.0002073,86.4017,335.4533,93.0714,267.0719,0,U,43572,999,31781,.34793E-3,.994E-5,0
IRIDIUM 155,2018-061E,2024-08-19T13:01:26.123808,14.34212608,.000202,86.4010,335.2835,88.9733,271.1694,0,U,43573,999,31780,.31927E-3,.914E-5,0
IRIDIUM 154,2018-061F,2024-08-19T12:34:02.228160,14.34217066,.0002123,86.4013,335.3928,99.0504,261.0932,0,U,43574,999,31785,-.78006E-5,-.2E-7,0
IRIDIUM 163,2018-061G,2024-08-19T13:47:07.003104,14.34212226,.0002184,86.4014,335.3077,91.6182,268.5264,0,U,43575,999,31783,.66934E-4,.207E-5,0
IRIDIUM 156,2018-061H,2024-08-19T13:10:34.138272,14.34213792,.000184,86.4010,335.3250,94.3981,265.7425,0,U,43576,999,31782,-.28311E-4,-.6E-6,0
IRIDIUM 164,2018-061J,2024-08-19T12:43:10.151904,14.34214289,.000222,86.4017,335.3627,102.0538,258.0907,0,U,43577,999,31786,.35573E-3,.1016E-4,0
IRIDIUM 159,2018-061K,2024-08-19T13:37:58.354464,14.34215047,.0002219,86.4014,335.2977,95.8058,264.3391,0,U,43578,999,31783,.32214E-3,.922E-5,0
BEIDOU-3 M5,2018-062A,2024-08-19T04:59:12.830496,1.86228557,.0005215,54.1291,204.9879,283.1301,76.7789,0,U,43581,999,4121,0,.47E-6,0
BEIDOU-3 M6,2018-062B,2024-08-19T01:45:36.682272,1.86229572,.0004879,54.1287,204.9819,0.9267,359.0420,0,U,43582,999,4121,0,.47E-6,0
TELKOM 4 (MERAH PUTIH),2018-064A,2024-08-19T15:30:27.729792,1.00270393,.0001426,0.0128,97.4886,59.8332,151.7707,0,U,43587,999,2219,0,-.35E-5,0
BEIDOU-3 M12,2018-067A,2024-08-19T00:08:55.118400,1.86229601,.0007121,54.2195,203.6712,19.3328,340.6609,0,U,43602,999,4069,0,.46E-6,0
BEIDOU-3 M11,2018-067B,2024-08-19T03:21:37.753056,1.86231388,.0004042,54.2168,203.6318,2.4365,357.5316,0,U,43603,999,4072,0,.46E-6,0
TELSTAR 18V,2018-069A,2024-08-19T05:17:15.806976,1.00269235,.0002242,0.0108,86.1512,58.6986,40.5217,0,U,43611,999,2194,0,-.299E-5,0
ICESAT-2,2018-070A,2024-08-19T13:55:18.755616,15.28339680,.0007293,91.9945,111.7021,145.5097,214.6626,0,U,43613,999,33065,.88727E-3,.24538E-3,0
BEIDOU-3 M13,2018-072A,2024-08-19T02:26:36.562848,1.86231448,.0004745,56.0424,84.7809,313.1961,46.8606,0,U,43622,999,4023,0,.18E-6,0
BEIDOU-3 M14,2018-072B,2024-08-18T23:12:52.168608,1.86231446,.0003772,56.0443,84.7786,0.0357,0.0608,0,U,43623,999,4022,0,.18E-6,0
AZERSPACE 2 (IS-38),2018-074A,2024-08-19T13:26:01.045248,1.00270080,.0001597,0.0135,103.0960,45.5646,66.3359,0,U,43632,999,2176,0,.13E-5,0
HORIZONS-3E,2018-074B,2024-08-19T04:28:42.588192,1.00271244,.0000317,0.0546,275.6336,1.7301,286.8314,0,U,43633,999,2165,0,-.36E-6,0
