43562,TELSTAR 19V,2018,1436.11,7075.0,+,0.02,Active,1,GSO,USA,Canada,Commercial,Communications,Falcon,1 43562U 18059A   24228.31738035 -.00000273  00000+0  00000+0 0  9992,2 43562   0.0235 169.9137 0003302 328.3142 237.2312  1.00270614 22419,1.00270614,0.0003302,GEO
43564,GSAT0221 (GALILEO 25),2018,844.69,715.0,+,57.3,Active,1,MEO,French Guiana,ESA,Commercial,Navigation (Global or Regional Positioning),Ariane,1 43564U 18060A   24230.35805197 -.00000079  00000+0  00000+0 0  9991,2 43564  57.3038 359.8233 0002756 261.2788  98.6918  1.70476027 37765,1.70476027,0.0002756,MEO
43565,GSAT0222 (GALILEO 26),2018,844.69,715.0,+,57.31,Active,1,MEO,French Guiana,ESA,Commercial,Navigation (Global or Regional Positioning),Ariane,1 43565U 18060B   24231.74982935 -.00000081  00000+0  00000+0 0  9995,2 43565  57.3079 359.7877 0003319 218.5897 141.3872  1.70475746 37836,1.70475746,0.0003319,MEO
43566,GSAT0219 (GALILEO 23),2018,844.69,715.0,+,57.31,Active,1,MEO,French Guiana,ESA,Commercial,Navigation (Global or Regional Positioning),Ariane,1 43566U 18060C   24232.55819527 -.00000083  00000+0  00000+0 0  9994,2 43566  57.3065 359.7678 0001894 265.7255  94.2534  1.70476004 37827,1.70476004,0.0001894,MEO
43567,GSAT0220 (GALILEO 24),2018,844.7,715.0,+,57.31,Active,1,MEO,French Guiana,ESA,Commercial,Navigation (Global or Regional Positioning),Ariane,1 43567U 18060D   24231.60568705 -.00000081  00000+0  00000+0 0  9997,2 43567  57.3068 359.7942 0002185 259.8094 100.1666  1.70475670 37791,1.7047567,0.0002185,MEO
43569,IRIDIUM 160,2018,100.4,860.0,+,86.4,Active,1,LEO,USA,USA,Commercial/Government,Communications,Falcon,1 43569U 18061A   24232.35237322  .00000034  00000+0  50710-5 0  9997,2 43569  86.4017 335.4590 0002447  98.0470 262.1003 14.34212912317799,14.34212912,0.0002447,LEO
43570,IRIDIUM 166,2018,100.4,860.0,+,86.4,Active,1,LEO,USA,USA,Commercial/Government,Communications,Falcon,1 43570U 18061B   24232.58705979  .00000953  00000+0  33323-3 0  9991,2 43570  86.4016 335.3203 0002108  87.4636 272.6801 14.34212876317858,14.34212876,0.0002108,LEO
43571,IRIDIUM 158,2018,100.4,860.0,+,86.4,Active,1,LEO,USA,USA,Commercial/Government,Communications,Falcon,1 43571U 18061C   24232.55534065  .00000700  00000+0  24291-3 0  9999,2 43571  86.4015 335.3430 0002012  90.8608 269.2819 14.34214658317829,14.34214658,0.0002012,LEO
43572,IRIDIUM 165,2018,100.4,860.0,+,86.4,Active,1,LEO,USA,USA,Commercial/Government,Communications,Falcon,1 43572U 18061D   24232.37142574  .00000994  00000+0  34793-3 0  9993,2 43572  86.4017 335.4533 0002073  93.0714 267.0719 14.34214411317818,14.34214411,0.0002073,LEO
43573,IRIDIUM 155,2018,100.4,860.0,+,86.4,Active,1,LEO,USA,USA,Commercial/Government,Communications,Falcon,1 43573U 18061E   24232.54266347  .00000914  00000+0  31927-3 0  9996,2 43573  86.4010 335.2835 0002020  88.9733 271.1694 14.34212608317804,14.34212608,0.000202,LEO
43574,IRIDIUM 154,2018,100.4,860.0,+,86.4,Active,1,LEO,USA,USA,Commercial/Government,Communications,Falcon,1 43574U 18061F   24232.52363690 -.00000002  00000+0 -78006-5 0  9995,2 43574  86.4013 335.3928 0002123  99.0504 261.0932 14.34217066317856,14.34217066,0.0002123,LEO
43575,IRIDIUM 163,2018,100.4,860.0,+,86.4,Active,1,LEO,USA,USA,Commercial/Government,Communications,Falcon,1 43575U 18061G   24232.57438661  .00000207  00000+0  66934-4 0  9993,2 43575  86.4014 335.3077 0002184  91.6182 268.5264 14.34212226317831,14.34212226,0.0002184,LEO
43576,IRIDIUM 156,2018,100.4,860.0,+,86.4,Active,1,LEO,USA,USA,Commercial/Government,Communications,Falcon,1 43576U 18061H   24232.54900623 -.00000060  00000+0 -28311-4 0  9999,2 43576  86.4010 335.3250 0001840  94.3981 265.7425 14.34213792317822,14.34213792,0.000184,LEO
43577,IRIDIUM 164,2018,100.4,860.0,+,86.4,Active,1,LEO,USA,USA,Commercial/Government,Communications,Falcon,1 43577U 18061J   24232.52997861  .00001016  00000+0  35573-3 0  9995,2 43577  86.4017 335.3627 0002220 102.0538 258.0907 14.34214289317862,14.34214289,0.000222,LEO
43578,IRIDIUM 159,2018,100.4,860.0,+,86.4,Active,1,LEO,USA,USA,Commercial/Government,Communications,Falcon,1 43578U 18061K   24232.56803651  .00000922  00000+0  32214-3 0  9997,2 43578  86.4014 335.2977 0002219  95.8058 264.3391 14.34215047317838,14.34215047,0.0002219,LEO
43581,BEIDOU-3 M5,2018,773.24,800.0,+,54.13,Active,1,MEO,PRC,China,Government/Military,Navigation (Global or Regional Positioning),Long March,1 43581U 18062A   24232.20778739  .00000047  00000+0  00000+0 0  9993,2 43581  54.1291 204.9879 0005215 283.1301  76.7789  1.86228557 41211,1.86228557,0.0005215,MEO
43582,BEIDOU-3 M6,2018,773.24,800.0,+,54.13,Active,1,MEO,PRC,China,Government/Military,Navigation (Global or Regional Positioning),Long March,1 43582U 18062B   24232.07334123  .00000047  00000+0  00000+0 0  9994,2 43582  54.1287 204.9819 0004879   0.9267 359.0420  1.86229572 41219,1.86229572,0.0004879,MEO
43587,TELKOM 4 (MERAH PUTIH),2018,1436.12,5800.0,+,0.01,Active,1,GSO,USA,Indonesia,Commercial,Communications,Falcon,1 43587U 18064A   24232.64615428 -.00000350  00000+0  00000+0 0  9992,2 43587   0.0128  97.4886 0001426  59.8332 151.7707  1.00270393 22192,1.00270393,0.0001426,GEO
43602,BEIDOU-3 M12,2018,773.24,800.0,+,54.22,Active,1,MEO,PRC,China,Government/Military,Navigation (Global or Regional Positioning),Long March,1 43602U 18067A   24232.00619350  .00000046  00000+0  00000+0 0  9992,2 43602  54.2195 203.6712 0007121  19.3328 340.6609  1.86229601 40693,1.86229601,0.0007121,MEO
43603,BEIDOU-3 M11,2018,773.23,800.0,+,54.22,Active,1,MEO,PRC,China,Government/Military,Navigation (Global or Regional Positioning),Long March,1 43603U 18067B   24232.14002029  .00000046  00000+0  00000+0 0  9997,2 43603  54.2168 203.6318 0004042   2.4365 357.5316  1.86231388 40720,1.86231388,0.0004042,MEO
43611,TELSTAR 18V,2018,1436.13,7060.0,+,0.01,Active,1,GSO,USA,Canada,Commercial,Communications,Falcon,1 43611U 18069A   24232.22032184 -.00000299  00000+0  00000+0 0  9993,2 43611   0.0108  86.1512 0002242  58.6986  40.5217  1.00269235 21944,1.00269235,0.0002242,GEO
43613,ICESAT-2,2018,94.22,1515.0,+,91.99,Active,1,LEO,USA,USA,Government,Earth Observation,Delta,1 43613U 18070A   24232.58007819  .00024538  00000+0  88727-3 0  9990,2 43613  91.9945 111.7021 0007293 145.5097 214.6626 15.28339680330650,15.2833968,0.0007293,LEO
43622,BEIDOU-3 M13,2018,773.23,800.0,+,56.04,Active,1,MEO,PRC,China,Government/Military,Navigation (Global or Regional Positioning),Long March,1 43622U 18072A   24232.10181207  .00000018  00000+0  00000+0 0  9995,2 43622  56.0424  84.7809 0004745 313.1961  46.8606  1.86231448 40236,1.86231448,0.0004745,MEO
43623,BEIDOU-3 M14,2018,773.23,800.0,+,56.04,Active,1,MEO,PRC,China,Government/Military,Navigation (Global or Regional Positioning),Long March,1 43623U 18072B   24231.96727047  .00000018  00000+0  00000+0 0  9997,2 43623  56.0443  84.7786 0003772   0.0357   0.0608  1.86231446 40223,1.86231446,0.0003772,MEO
43632,AZERSPACE 2 (IS-38),2018,1436.13,3500.0,+,0.01,Active,1,GSO,French Guiana,Azerbaijan,Government,Communications,Ariane,1 43632U 18074A   24232.55973432  .00000130  00000+0  00000+0 0  9991,2 43632   0.0135 103.0960 0001597  45.5646  66.3359  1.00270080 21766,1.0027008,0.0001597,GEO
43633,HORIZONS-3E,2018,1436.1,6500.0,+,0.05,Active,1,GSO,French Guiana,INTELSAT,Commercial,Communications,Ariane,1 43633U 18074B   24232.18660403 -.00000036  00000+0  00000+0 0  9998,2 43633   0.0546 275.6336 0000317   1.7301 286.8314  1.00271244 21658,1.00271244,3.17e-05,GEO
